[{"OBJECT_NAME":"STARLINK-36040","OBJECT_ID":"2025-270AC","EPOCH":"2026-03-09T23:06:36.441792","MEAN_MOTION":15.27622482,"ECCENTRICITY":0.00012527,"INCLINATION":43.0025,"RA_OF_ASC_NODE":54.977,"ARG_OF_PERICENTER":213.581,"MEAN_ANOMALY":146.4963,"EPHEMERIS_TYPE":0,"CLASSIFICATION_TYPE":"U","NORAD_CAT_ID":66614,"ELEMENT_SET_NO":999,"REV_AT_EPOCH":1758,"BSTAR":0.0012926562,"MEAN_MOTION_DOT":0.00035527,"MEAN_MOTION_DDOT":0},{"OBJECT_NAME":"OKEAN-1","OBJECT_ID":"1988-056A","EPOCH":"2026-03-09T21:19:04.260000","MEAN_MOTION":15.31672069,"ECCENTRICITY":0.00129431,"INCLINATION":82.4671,"RA_OF_ASC_NODE":262.7586,"ARG_OF_PERICENTER":168.0696,"MEAN_ANOMALY":192.0855,"EPHEMERIS_TYPE":0,"CLASSIFICATION_TYPE":"U","NORAD_CAT_ID":19274,"ELEMENT_SET_NO":999,"REV_AT_EPOCH":3511,"BSTAR":0.00038371192,"MEAN_MOTION_DOT":0.00011798,"MEAN_MOTION_DDOT":0}]
